IRIDIUM 116             
1 43072U 17083C   24199.64605221  .00000464  00000+0  15846-3 0  9996
2 43072  86.3947 254.3296 0002280  91.4087 268.7370 14.34217334343901
IRIDIUM 130             
1 43073U 17083D   24199.68411096  .00000075  00000+0  19662-4 0  9995
2 43073  86.3955 254.5212 0002321  91.6571 268.4891 14.34218051343853
IRIDIUM 151             
1 43074U 17083E   24200.21688668  .00000173  00000+0  54671-4 0  9997
2 43074  86.3949 254.1330 0002078  94.8904 265.2529 14.34219053343955
IRIDIUM 134             
1 43075U 17083F   24199.76656467  .00000074  00000+0  19422-4 0  9992
2 43075  86.3949 254.3198 0002440  90.0195 270.1280 14.34218084343854
IRIDIUM 137             
1 43076U 17083G   24200.19785266  .00000566  00000+0  19514-3 0  9990
2 43076  86.3950 254.2179 0001882  85.9222 274.2189 14.34222708343983
IRIDIUM 141             
1 43077U 17083H   24199.70313748  .00000553  00000+0  19027-3 0  9992
2 43077  86.3946 254.2952 0002258  97.3580 262.7872 14.34219973343914
IRIDIUM 153             
1 43078U 17083J   24199.58554035  .00000410  00000+0  13939-3 0  9993
2 43078  86.3963 222.8149 0002350 106.0712 254.0743 14.34222214345006
